ION SCV-004             
1 50993U 22002K   26068.68892644  .00006538  00000+0  23198-3 0  9998
2 50993  97.2961 128.2294 0007216   1.6783 358.4480 15.29369331230088
STARLINK-36145          
1 66983U 25288AA  26068.28360458  .00028845  00000+0  10532-2 0  9994
2 66983  43.0036  25.8836 0001682 255.2331 104.8334 15.27593375 15220
